0 FENGYUN 1C DEB
1 36280U 99025DXH 13281.85438103  .00000978  00000-0  67752-3 0  2909
2 36280 099.1640 307.8795 0072481 205.0795 154.6888 14.00216004240261
0 FENGYUN 1C DEB
1 36280U 99025DXH 13283.85517258  .00001015  00000-0  70216-3 0  2913
2 36280 099.1639 309.8840 0072038 199.7651 160.0770 14.00221144240543
0 FENGYUN 1C DEB
1 36280U 99025DXH 13286.85634309  .00001067  00000-0  73573-3 0  2931
2 36280 099.1645 312.8934 0072608 190.8218 169.1389 14.00229102240966
0 FENGYUN 1C DEB
1 36280U 99025DXH 13288.85711494  .00001099  00000-0  75738-3 0  2945
2 36280 099.1647 314.8977 0072148 185.6113 174.4251 14.00234636241249
0 FENGYUN 1C DEB
1 36280U 99025DXH 13290.28622985  .00001149  00000-0  79009-3 0  2953
2 36280 099.1640 316.3276 0072490 181.8114 178.2952 14.00239612241441
0 FENGYUN 1C DEB
1 36280U 99025DXH 13292.28698354  .00001209  00000-0  82961-3 0  2967
2 36280 099.1635 318.3298 0071953 176.5306 183.6465 14.00246166241720
0 FENGYUN 1C DEB
1 36280U 99025DXH 13294.28772805  .00001262  00000-0  86521-3 0  2979
2 36280 099.1625 320.3323 0071439 171.1748 189.0770 14.00252885242007
